[
{"CCSDS_OMM_VERS":"2.0",
"COMMENT":"GENERATED VIA SPACE-TRACK.ORG API",
"CREATION_DATE":"2022-04-22T19:55:20",
"ORIGINATOR":"18 SPCS",
"OBJECT_NAME":"VANGUARD 1",
"OBJECT_ID":"1958-002B",
"CENTER_NAME":"EARTH",
"REF_FRAME":"TEME",
"TIME_SYSTEM":"UTC",
"MEAN_ELEMENT_THEORY":"SGP4",
"EPOCH":"2022-04-22T05:34:24.945024",
"MEAN_MOTION":"10.84916829",
"ECCENTRICITY":"0.18458800",
"INCLINATION":"34.2466",
"RA_OF_ASC_NODE":"312.6629",
"ARG_OF_PERICENTER":"144.4909",
"MEAN_ANOMALY":"229.3839",
"EPHEMERIS_TYPE":"0",
"CLASSIFICATION_TYPE":"U",
"NORAD_CAT_ID":"5",
"ELEMENT_SET_NO":"999",
"REV_AT_EPOCH":"27843",
"BSTAR":"0.00068313000000",
"MEAN_MOTION_DOT":"0.00000536",
"MEAN_MOTION_DDOT":"0.0000000000000",
"SEMIMAJOR_AXIS":"8619.278",
"PERIOD":"132.729",
"APOAPSIS":"3832.158",
"PERIAPSIS":"650.128",
"OBJECT_TYPE":"PAYLOAD",
"RCS_SIZE":"MEDIUM",
"COUNTRY_CODE":"US",
"LAUNCH_DATE":"1958-03-17",
"SITE":"AFETR",
"DECAY_DATE":null,
"FILE":"3411458",
"GP_ID":"201802961",
"TLE_LINE0":"0 VANGUARD 1",
"TLE_LINE1":"1 00005U 58002B   22112.23223316  .00000536  00000-0  68313-3 0  9998",
"TLE_LINE2":"2 00005  34.2466 312.6629 1845880 144.4909 229.3839 10.84916829278434"},
{"CCSDS_OMM_VERS":"2.0",
"COMMENT":"GENERATED VIA SPACE-TRACK.ORG API",
"CREATION_DATE":"2022-04-23T19:56:45",
"ORIGINATOR":"18 SPCS",
"OBJECT_NAME":"VANGUARD 1",
"OBJECT_ID":"1958-002B",
"CENTER_NAME":"EARTH",
"REF_FRAME":"TEME",
"TIME_SYSTEM":"UTC",
"MEAN_ELEMENT_THEORY":"SGP4",
"EPOCH":"2022-04-23T05:52:12.239040",
"MEAN_MOTION":"10.84918054",
"ECCENTRICITY":"0.18459270",
"INCLINATION":"34.2465",
"RA_OF_ASC_NODE":"309.5429",
"ARG_OF_PERICENTER":"149.0489",
"MEAN_ANOMALY":"223.3342",
"EPHEMERIS_TYPE":"0",
"CLASSIFICATION_TYPE":"U",
"NORAD_CAT_ID":"5",
"ELEMENT_SET_NO":"999",
"REV_AT_EPOCH":"27854",
"BSTAR":"0.00072214000000",
"MEAN_MOTION_DOT":"0.00000568",
"MEAN_MOTION_DDOT":"0.0000000000000",
"SEMIMAJOR_AXIS":"8619.271",
"PERIOD":"132.729",
"APOAPSIS":"3832.191",
"PERIAPSIS":"650.082",
"OBJECT_TYPE":"PAYLOAD",
"RCS_SIZE":"MEDIUM",
"COUNTRY_CODE":"US",
"LAUNCH_DATE":"1958-03-17",
"SITE":"AFETR",
"DECAY_DATE":null,
"FILE":"3412883",
"GP_ID":"201859623",
"TLE_LINE0":"0 VANGUARD 1",
"TLE_LINE1":"1 00005U 58002B   22113.24458610  .00000568  00000-0  72214-3 0  9997",
"TLE_LINE2":"2 00005  34.2465 309.5429 1845927 149.0489 223.3342 10.84918054278549"},
{"CCSDS_OMM_VERS":"2.0",
"COMMENT":"GENERATED VIA SPACE-TRACK.ORG API",
"CREATION_DATE":"2022-04-23T15:06:12",
"ORIGINATOR":"18 SPCS",
"OBJECT_NAME":"VANGUARD 1",
"OBJECT_ID":"1958-002B",
"CENTER_NAME":"EARTH",
"REF_FRAME":"TEME",
"TIME_SYSTEM":"UTC",
"MEAN_ELEMENT_THEORY":"SGP4",
"EPOCH":"2022-04-23T05:52:12.239040",
"MEAN_MOTION":"10.84918054",
"ECCENTRICITY":"0.18459270",
"INCLINATION":"34.2465",
"RA_OF_ASC_NODE":"309.5429",
"ARG_OF_PERICENTER":"149.0489",
"MEAN_ANOMALY":"223.3342",
"EPHEMERIS_TYPE":"0",
"CLASSIFICATION_TYPE":"U",
"NORAD_CAT_ID":"5",
"ELEMENT_SET_NO":"999",
"REV_AT_EPOCH":"27864",
"BSTAR":"0.00072214000000",
"MEAN_MOTION_DOT":"0.00000568",
"MEAN_MOTION_DDOT":"0.0000000000000",
"SEMIMAJOR_AXIS":"8619.271",
"PERIOD":"132.729",
"APOAPSIS":"3832.191",
"PERIAPSIS":"650.082",
"OBJECT_TYPE":"PAYLOAD",
"RCS_SIZE":"MEDIUM",
"COUNTRY_CODE":"US",
"LAUNCH_DATE":"1958-03-17",
"SITE":"AFETR",
"DECAY_DATE":null,
"FILE":"3412565",
"GP_ID":"201852077",
"TLE_LINE0":"0 VANGUARD 1",
"TLE_LINE1":"1     5U 58002B   22113.24458610  .00000568  00000-0  72214-3 0  9997",
"TLE_LINE2":"2     5  34.2465 309.5429 1845927 149.0489 223.3342 10.84918054278640"},
{"CCSDS_OMM_VERS":"2.0",
"COMMENT":"GENERATED VIA SPACE-TRACK.ORG API",
"CREATION_DATE":"2022-04-25T18:05:35",
"ORIGINATOR":"18 SPCS",
"OBJECT_NAME":"VANGUARD 1",
"OBJECT_ID":"1958-002B",
"CENTER_NAME":"EARTH",
"REF_FRAME":"TEME",
"TIME_SYSTEM":"UTC",
"MEAN_ELEMENT_THEORY":"SGP4",
"EPOCH":"2022-04-24T21:37:35.236128",
"MEAN_MOTION":"10.84919760",
"ECCENTRICITY":"0.18460030",
"INCLINATION":"34.2466",
"RA_OF_ASC_NODE":"304.4375",
"ARG_OF_PERICENTER":"156.5075",
"MEAN_ANOMALY":"213.2036",
"EPHEMERIS_TYPE":"0",
"CLASSIFICATION_TYPE":"U",
"NORAD_CAT_ID":"5",
"ELEMENT_SET_NO":"999",
"REV_AT_EPOCH":"27872",
"BSTAR":"0.00068705000000",
"MEAN_MOTION_DOT":"0.00000543",
"MEAN_MOTION_DDOT":"0.0000000000000",
"SEMIMAJOR_AXIS":"8619.262",
"PERIOD":"132.729",
"APOAPSIS":"3832.246",
"PERIAPSIS":"650.009",
"OBJECT_TYPE":"PAYLOAD",
"RCS_SIZE":"MEDIUM",
"COUNTRY_CODE":"US",
"LAUNCH_DATE":"1958-03-17",
"SITE":"AFETR",
"DECAY_DATE":null,
"FILE":"3415659",
"GP_ID":"201971775",
"TLE_LINE0":"0 VANGUARD 1",
"TLE_LINE1":"1 00005U 58002B   22114.90110227  .00000543  00000-0  68705-3 0  9993",
"TLE_LINE2":"2 00005  34.2466 304.4375 1846003 156.5075 213.2036 10.84919760278727"},
{"CCSDS_OMM_VERS":"2.0",
"COMMENT":"GENERATED VIA SPACE-TRACK.ORG API",
"CREATION_DATE":"2022-04-26T02:53:38",
"ORIGINATOR":"18 SPCS",
"OBJECT_NAME":"VANGUARD 1",
"OBJECT_ID":"1958-002B",
"CENTER_NAME":"EARTH",
"REF_FRAME":"TEME",
"TIME_SYSTEM":"UTC",
"MEAN_ELEMENT_THEORY":"SGP4",
"EPOCH":"2022-04-25T19:42:45.546336",
"MEAN_MOTION":"10.84920813",
"ECCENTRICITY":"0.18460420",
"INCLINATION":"34.2468",
"RA_OF_ASC_NODE":"301.6011",
"ARG_OF_PERICENTER":"160.6513",
"MEAN_ANOMALY":"207.4691",
"EPHEMERIS_TYPE":"0",
"CLASSIFICATION_TYPE":"U",
"NORAD_CAT_ID":"5",
"ELEMENT_SET_NO":"999",
"REV_AT_EPOCH":"27882",
"BSTAR":"0.00068258000000",
"MEAN_MOTION_DOT":"0.00000541",
"MEAN_MOTION_DDOT":"0.0000000000000",
"SEMIMAJOR_AXIS":"8619.257",
"PERIOD":"132.729",
"APOAPSIS":"3832.273",
"PERIAPSIS":"649.971",
"OBJECT_TYPE":"PAYLOAD",
"RCS_SIZE":"MEDIUM",
"COUNTRY_CODE":"US",
"LAUNCH_DATE":"1958-03-17",
"SITE":"AFETR",
"DECAY_DATE":null,
"FILE":"3416090",
"GP_ID":"202005982",
"TLE_LINE0":"0 VANGUARD 1",
"TLE_LINE1":"1 00005U 58002B   22115.82136049  .00000541  00000-0  68258-3 0  9996",
"TLE_LINE2":"2 00005  34.2468 301.6011 1846042 160.6513 207.4691 10.84920813278825"},
{"CCSDS_OMM_VERS":"2.0",
"COMMENT":"GENERATED VIA SPACE-TRACK.ORG API",
"CREATION_DATE":"2022-04-25T22:46:12",
"ORIGINATOR":"18 SPCS",
"OBJECT_NAME":"VANGUARD 1",
"OBJECT_ID":"1958-002B",
"CENTER_NAME":"EARTH",
"REF_FRAME":"TEME",
"TIME_SYSTEM":"UTC",
"MEAN_ELEMENT_THEORY":"SGP4",
"EPOCH":"2022-04-25T19:42:45.546336",
"MEAN_MOTION":"10.84920813",
"ECCENTRICITY":"0.18460420",
"INCLINATION":"34.2468",
"RA_OF_ASC_NODE":"301.6011",
"ARG_OF_PERICENTER":"160.6513",
"MEAN_ANOMALY":"207.4691",
"EPHEMERIS_TYPE":"0",
"CLASSIFICATION_TYPE":"U",
"NORAD_CAT_ID":"5",
"ELEMENT_SET_NO":"999",
"REV_AT_EPOCH":"27892",
"BSTAR":"0.00068258000000",
"MEAN_MOTION_DOT":"0.00000541",
"MEAN_MOTION_DDOT":"0.0000000000000",
"SEMIMAJOR_AXIS":"8619.257",
"PERIOD":"132.729",
"APOAPSIS":"3832.273",
"PERIAPSIS":"649.971",
"OBJECT_TYPE":"PAYLOAD",
"RCS_SIZE":"MEDIUM",
"COUNTRY_CODE":"US",
"LAUNCH_DATE":"1958-03-17",
"SITE":"AFETR",
"DECAY_DATE":null,
"FILE":"3415837",
"GP_ID":"202000263",
"TLE_LINE0":"0 VANGUARD 1",
"TLE_LINE1":"1     5U 58002B   22115.82136049  .00000541  00000-0  68258-3 0  9996",
"TLE_LINE2":"2     5  34.2468 301.6011 1846042 160.6513 207.4691 10.84920813278926"},
{"CCSDS_OMM_VERS":"2.0",
"COMMENT":"GENERATED VIA SPACE-TRACK.ORG API",
"CREATION_DATE":"2022-04-26T18:18:49",
"ORIGINATOR":"18 SPCS",
"OBJECT_NAME":"VANGUARD 1",
"OBJECT_ID":"1958-002B",
"CENTER_NAME":"EARTH",
"REF_FRAME":"TEME",
"TIME_SYSTEM":"UTC",
"MEAN_ELEMENT_THEORY":"SGP4",
"EPOCH":"2022-04-26T04:32:49.245504",
"MEAN_MOTION":"10.84921266",
"ECCENTRICITY":"0.18460590",
"INCLINATION":"34.2468",
"RA_OF_ASC_NODE":"300.4666",
"ARG_OF_PERICENTER":"162.3087",
"MEAN_ANOMALY":"205.1574",
"EPHEMERIS_TYPE":"0",
"CLASSIFICATION_TYPE":"U",
"NORAD_CAT_ID":"5",
"ELEMENT_SET_NO":"999",
"REV_AT_EPOCH":"27886",
"BSTAR":"0.00068347000000",
"MEAN_MOTION_DOT":"0.00000543",
"MEAN_MOTION_DDOT":"0.0000000000000",
"SEMIMAJOR_AXIS":"8619.254",
"PERIOD":"132.729",
"APOAPSIS":"3832.284",
"PERIAPSIS":"649.954",
"OBJECT_TYPE":"PAYLOAD",
"RCS_SIZE":"MEDIUM",
"COUNTRY_CODE":"US",
"LAUNCH_DATE":"1958-03-17",
"SITE":"AFETR",
"DECAY_DATE":null,
"FILE":"3417035",
"GP_ID":"202055234",
"TLE_LINE0":"0 VANGUARD 1",
"TLE_LINE1":"1 00005U 58002B   22116.18945886  .00000543  00000-0  68347-3 0  9994",
"TLE_LINE2":"2 00005  34.2468 300.4666 1846059 162.3087 205.1574 10.84921266278863"},
{"CCSDS_OMM_VERS":"2.0",
"COMMENT":"GENERATED VIA SPACE-TRACK.ORG API",
"CREATION_DATE":"2022-04-28T18:34:29",
"ORIGINATOR":"18 SPCS",
"OBJECT_NAME":"VANGUARD 1",
"OBJECT_ID":"1958-002B",
"CENTER_NAME":"EARTH",
"REF_FRAME":"TEME",
"TIME_SYSTEM":"UTC",
"MEAN_ELEMENT_THEORY":"SGP4",
"EPOCH":"2022-04-27T20:18:03.453120",
"MEAN_MOTION":"10.84924199",
"ECCENTRICITY":"0.18461390",
"INCLINATION":"34.2473",
"RA_OF_ASC_NODE":"295.3615",
"ARG_OF_PERICENTER":"169.7668",
"MEAN_ANOMALY":"194.6536",
"EPHEMERIS_TYPE":"0",
"CLASSIFICATION_TYPE":"U",
"NORAD_CAT_ID":"5",
"ELEMENT_SET_NO":"999",
"REV_AT_EPOCH":"27904",
"BSTAR":"0.00086428000000",
"MEAN_MOTION_DOT":"0.00000689",
"MEAN_MOTION_DDOT":"0.0000000000000",
"SEMIMAJOR_AXIS":"8619.239",
"PERIOD":"132.728",
"APOAPSIS":"3832.335",
"PERIAPSIS":"649.872",
"OBJECT_TYPE":"PAYLOAD",
"RCS_SIZE":"MEDIUM",
"COUNTRY_CODE":"US",
"LAUNCH_DATE":"1958-03-17",
"SITE":"AFETR",
"DECAY_DATE":null,
"FILE":"3420061",
"GP_ID":"202195929",
"TLE_LINE0":"0 VANGUARD 1",
"TLE_LINE1":"1 00005U 58002B   22117.84587330  .00000689  00000-0  86428-3 0  9995",
"TLE_LINE2":"2 00005  34.2473 295.3615 1846139 169.7668 194.6536 10.84924199279049"}]